[{"OBJECT_NAME":"ONEWEB-0609","OBJECT_ID":"2023-043AA","EPOCH":"2026-03-09T14:59:35.401920","MEAN_MOTION":13.15547705,"ECCENTRICITY":0.0001696,"INCLINATION":87.8934,"RA_OF_ASC_NODE":279.0965,"ARG_OF_PERICENTER":90.0975,"MEAN_ANOMALY":270.035,"EPHEMERIS_TYPE":0,"CLASSIFICATION_TYPE":"U","NORAD_CAT_ID":56070,"ELEMENT_SET_NO":999,"REV_AT_EPOCH":14334,"BSTAR":-4.0627e-5,"MEAN_MOTION_DOT":-2.0e-8,"MEAN_MOTION_DDOT":0},{"OBJECT_NAME":"COSMOS 409","OBJECT_ID":"1971-038A","EPOCH":"2026-03-09T17:20:52.429056","MEAN_MOTION":13.17842311,"ECCENTRICITY":0.00220215,"INCLINATION":74.003,"RA_OF_ASC_NODE":163.2842,"ARG_OF_PERICENTER":70.8976,"MEAN_ANOMALY":43.1242,"EPHEMERIS_TYPE":0,"CLASSIFICATION_TYPE":"U","NORAD_CAT_ID":5180,"ELEMENT_SET_NO":999,"REV_AT_EPOCH":63914,"BSTAR":0.00038470119,"MEAN_MOTION_DOT":1.31e-6,"MEAN_MOTION_DDOT":0}]
